#aV2007  5  7  0  0   .00000000      96 DD+AD WGS84 FIT  NGA
## 1426  86400.00000000   900.00000000 54227  .0000000000000
+   30     1  2  3  4  5  6  7  8  9 10 11 12 13 14 16 17 18
+         19 20 21 22 23 24 25 26 27 28 29 30 31  0  0  0  0
+          0  0  0  0  0  0  0  0  0  0  0  0  0  0  0  0  0
+          0  0  0  0  0  0  0  0  0  0  0  0  0  0  0  0  0
+          0  0  0  0  0  0  0  0  0  0  0  0  0  0  0  0  0
++         0  0  0  0  0  0  0  0  0  0  0  0  0  0  0  0  0
++         0  0  0  0  0  0  0  0  0  0  0  0  0  0  0  0  0
++         0  0  0  0  0  0  0  0  0  0  0  0  0  0  0  0  0
++         0  0  0  0  0  0  0  0  0  0  0  0  0  0  0  0  0
++         0  0  0  0  0  0  0  0  0  0  0  0  0  0  0  0  0
%c cc cc ccc ccc cccc cccc cccc cccc ccccc ccccc ccccc ccccc
%c cc cc ccc ccc cccc cccc cccc cccc ccccc ccccc ccccc ccccc
%f  0.0000000  0.000000000  0.00000000000  0.000000000000000
%f  0.0000000  0.000000000  0.00000000000  0.000000000000000
%i    0    0    0    0      0      0      0      0         0
%i    0    0    0    0      0      0      0      0         0
/*      NGA, ST. LOUIS,MO.                                  
/*   EPHEMERIS COMPUTED FROM  3 DAYS OF DATA                
/* CCCCCCCCCCCCCCCCCCCCCCCCCCCCCCCCCCCCCCCCCCCCCCCCCCCCCCCCC
/* CCCCCCCCCCCCCCCCCCCCCCCCCCCCCCCCCCCCCCCCCCCCCCCCCCCCCCCCC
*  2007  5  7  5  0   .00000000                                                 
P  1  15141.068739    819.455534 -21612.864725    125.653699                    
V  1   8103.387515  26632.983477   6562.201513       .030151                    
P  2 -20542.519544   8949.421568 -14256.670055    104.600129                    
V  2   9306.452064 -15487.549239 -23768.422988       .029442                    
P  3  15639.601629  -3872.175862  20936.861590     53.651901                    
V  3  11628.369196  24563.838345  -3769.761695       .056798                    
P  4 -16976.928629  -2712.900086 -20400.470767     10.941293                    
V  4  15950.467676 -20186.397271 -10267.509601       .001141                    
P  5  -5752.923284  15141.597634 -21266.635208     13.431700                    
V  5 -26427.388496  -2758.617007   5395.438886      -.129031                    
P  6   5382.157764  25154.960081  -6329.778573    172.792481                    
V  6  -6505.657273  -6308.701216 -29757.752424       .149298                    
P  7   9136.785488  24751.480734  -2358.979114    314.320008                    
V  7  -4772.031660  -1621.118449 -31027.085493      -.165650                    
P  8  -8645.129629 -12281.357778  21753.318272   -106.368565                    
V  8  19083.301418 -20345.747626  -4307.166691      -.014516                    
P  9 -14506.572514  22005.509168  -2617.858244     69.219947                    
V  9  -3821.355024    388.627087  31790.577361       .015913                    
P 10 -24921.249114   1741.491049   9361.894770    101.505397                    
V 10 -11331.763868  -4314.741305 -28687.402508       .005360                    
P 11  11340.714275 -23725.261625  -2498.575972     15.273273                    
V 11   5969.890138   -157.813721  30167.371661       .009374                    
P 12 -10349.302227  12907.859988 -20655.008093    -44.531098                    
V 12 -25987.537962  -5225.865386   9758.999386      -.004346                    
P 13  -5818.806454 -25645.688445  -3995.309982    170.028387                    
V 13   3138.496145   4140.675184 -31928.095237       .035613                    
P 14  15389.600841  16822.747305 -13604.924529     19.036925                    
V 14   4315.864224  16855.976374  25498.297226       .017004                    
P 16  26289.229413   2026.796572   3892.505820    145.804027                    
V 16   4275.973222   3392.481047 -31200.439319       .030791                    
P 17 -15253.135509 -18667.533203 -11279.747794     69.122149                    
V 17  -2713.426069 -14234.888966  27069.561975      -.013374                    
P 18  11866.730828  15667.779351  18150.817230   -250.386647                    
V 18 -22493.486463  -3231.559228  17294.536657       .007866                    
P 19  10661.502172 -13736.380296  20147.047443     31.669599                    
V 19   8427.103436  23990.066354  12065.950041       .035053                    
P 20   9538.099040 -13532.489729 -20863.550682    -24.361176                    
V 20  25852.017021   4873.312241   8740.310930      -.003424                    
P 21   2065.585806  18493.923095  18848.682921     76.495754                    
V 21 -17292.527728  16708.339212 -15161.787603       .005480                    
P 22  21608.607586  11973.814643   9945.082686    180.711984                    
V 22 -12715.369499     24.067021  27996.497389       .017221                    
P 23   1578.746145 -22642.528601 -13710.464059    164.697492                    
V 23   7989.716034  15516.588425 -25050.615630       .025313                    
P 24 -10312.107592  22333.535683  10592.087425     98.332371                    
V 24 -10519.217692   8071.468693 -27514.375181       .027805                    
P 25  11473.610297 -23566.899232   5292.298023    233.415727                    
V 25   5604.446413  -3682.945753 -30663.198235       .279352                    
P 26 -11092.109367  10481.219614  21204.023436   -180.535196                    
V 26  -9601.405585 -26308.890090   8373.674841      -.205161                    
P 27  -2121.740608 -19222.905997  18744.125793    109.238194                    
V 27  14409.983537 -17426.155429 -17062.145913       .022174                    
P 28 -19097.386897 -13250.595418  13499.821848      1.673257                    
V 28  16516.675092   1245.546674  24878.504725      -.008669                    
P 29 -13365.907530   6152.502600  22307.147818      2.476136                    
V 29  -9944.434487 -25914.091409   1559.539704       .003540                    
P 30   2170.682863  15907.235120 -21476.881384     33.093373                    
V 30 -26436.891902  -2985.180314  -4839.811853       .010254                    
P 31  17098.465829   1213.238304 -20108.636441     19.895251                    
V 31 -15619.108365  20752.942678 -11842.078523      -.002519                    
EOF
